VIASAT-2                
1 42740U 17029A   25334.56291168 -.00000243  00000+0  00000+0 0  9999
2 42740   0.0146 289.7364 0000560 179.0470  93.6389  1.00270367 31219
EUTELSAT 172B           
1 42741U 17029B   25334.56919830  .00000016  00000+0  00000+0 0  9990
2 42741   0.0080 136.1057 0000031 107.6303 202.8761  1.00270865 31734
GSAT-19                 
1 42747U 17031A   25334.58626419  .00000147  00000+0  00000+0 0  9994
2 42747   0.1045  91.7633 0003210 115.6231 121.2563  1.00271858 31152
ECHOSTAR 21             
1 42749U 17032A   25334.57881081  .00000085  00000+0  00000+0 0  9995
2 42749   1.8451 342.8838 0002551 257.5931  47.8805  1.00272588 31108
BULGARIASAT-1           
1 42801U 17038A   25334.29183922  .00000033  00000+0  00000+0 0  9991
2 42801   0.0300  79.6820 0002586 168.4836 288.2339  1.00269882 30845
HELLAS-SAT 3            
1 42814U 17040A   25334.58453084  .00000174  00000+0  00000+0 0  9995
2 42814   0.0411  20.3033 0001779 279.8936  18.9408  1.00270050 30813
GSAT-17                 
1 42815U 17040B   25334.59536424 -.00000236  00000+0  00000+0 0  9997
2 42815   0.0659 104.8406 0007298 153.4173 119.2943  1.00270390 30795
INTELSAT 35E (IS-35E)   
1 42818U 17041A   25334.42730005 -.00000216  00000+0  00000+0 0  9992
2 42818   0.0183 343.0920 0002363 268.3661 297.4577  1.00271862 30825
COSMOS 2520             
1 42907U 17046A   25334.51437803  .00000159  00000+0  00000+0 0  9991
2 42907   0.0338  87.8603 0000806 237.1023 334.8655  1.00268925 30406
TDRS 13                 
1 42915U 17047A   25334.43180675 -.00000084  00000+0  00000+0 0  9992
2 42915   3.4250 357.5993 0010044 127.9879  87.9249  1.00271552 30353
QZS-3 (MICHIBIKI-3)     
1 42917U 17048A   25334.58378190 -.00000327  00000+0  00000+0 0  9992
2 42917   0.0897 123.1457 0001205 123.2571 160.4362  1.00265880 30264
AMAZONAS 5              
1 42934U 17053A   25334.56473169 -.00000261  00000+0  00000+0 0  9994
2 42934   0.0343 318.3580 0004527 313.7554 299.8998  1.00269956 30058
ASIASAT 9               
1 42942U 17057A   25332.24665524 -.00000340  00000+0  00000+0 0  9996
2 42942   0.0095  91.8840 0002487 152.2435  34.1968  1.00268484 29847
INTELSAT 37E (IS-37E)   
1 42950U 17059A   25334.57306997 -.00000119  00000+0  00000+0 0  9995
2 42950   0.0027  14.6445 0003359 232.8263  10.5552  1.00271762 30075
BSAT-4A                 
1 42951U 17059B   25334.45590022 -.00000328  00000+0  00000+0 0  9999
2 42951   0.0376  28.4595 0001893 305.3622   9.7376  1.00268932 29806
QZS-4 (MICHIBIKI-4)     
1 42965U 17062A   25334.36433866 -.00000304  00000+0  00000+0 0  9994
2 42965  40.2330 346.0314 0752320 271.1913  80.7722  1.00255929 29813
SES-11 (ECHOSTAR 105)   
1 42967U 17063A   25334.55597830 -.00000068  00000+0  00000+0 0  9997
2 42967   0.0180 320.7272 0003130 287.5914 276.5723  1.00271559 29738
KOREASAT 5A             
1 42984U 17067A   25334.59926426 -.00000337  00000+0  00000+0 0  9990
2 42984   0.0083 353.4280 0001705 254.0873 151.1094  1.00272515 29530
ALCOMSAT 1              
1 43039U 17078A   25334.42920672  .00000000  00000+0  00000+0 0  9999
2 43039   0.0211 103.4463 0003730 139.2518 316.5666  1.00270256 29308
SBIRS GEO-3 (USA 282)   
1 43162U 18009A   25334.55253094  .00000148  00000+0  00000+0 0  9995
2 43162   2.0911   1.8945 0002300 246.6874 220.6220  1.00271467 28855
AL YAH 3                
1 43174U 18012A   25334.43016007 -.00000133  00000+0  00000+0 0  9995
2 43174   1.0358  85.6000 0003647 176.8928 301.8399  1.00270549 28852
SES-14                  
1 43175U 18012B   25334.49602714 -.00000257  00000+0  00000+0 0  9995
2 43175   0.0155 358.3750 0001110 223.1196 339.2240  1.00269226  5030
GOES 17                 
1 43226U 18022A   25334.55909832 -.00000161  00000+0  00000+0 0  9995
2 43226   0.4252  89.4004 0003349 180.3645 271.7074  1.00270369 28436
HISPASAT 30W-6          
1 43228U 18023A   25334.35683962 -.00000194  00000+0  00000+0 0  9995
2 43228   0.0450  37.8812 0003049 228.5389 261.5453  1.00270722 28414
SUPERBIRD-B3            
1 43271U 18033A   25334.57822380 -.00000070  00000+0  00000+0 0  9990
2 43271   0.0416 124.0186 0001322 118.9070 196.9722  1.00270060 28064
HYLAS 4                 
1 43272U 18033B   25334.42747338 -.00000212  00000+0  00000+0 0  9992
2 43272   0.0282 284.3528 0001385 341.0122 284.5881  1.00268880 28070
IRNSS-1I                
1 43286U 18035A   25333.87428973  .00000102  00000+0  00000+0 0  9995
2 43286  29.1184  77.3003 0021518 181.3940 180.1762  1.00276938 28082
USA 283                 
1 43339U 18036A   25331.53567117  .00000000  00000+0  00000+0 0  9997
2 43339   0.0156 323.5755 0000089 271.9677 158.0865  1.00269121 23260
COSMOS 2526             
1 43432U 18037A   25331.18447491 -.00000325  00000+0  00000+0 0  9996
2 43432   0.0289  82.2749 0000274 308.1887 230.3588  1.00268965 27945
APSTAR-6C               
1 43450U 18041A   25331.32161330 -.00000299  00000+0  00000+0 0  9992
2 43450   0.0350 324.4561 0003480 315.2119  36.6181  1.00267712 27772
BANGABANDHUSAT-1        
1 43463U 18044A   25334.60039094  .00000000  00000+0  00000+0 0  9993
2 43463   0.0145 333.0823 0002597 278.6365 153.2383  1.00269135 27713
SES-12                  
1 43488U 18049A   25334.59562424 -.00000248  00000+0  00000+0 0  9996
2 43488   0.0303  43.8564 0002581 217.5468 117.7557  1.00271287 27420
FENGYUN 2H              
1 43491U 18050A   25334.52122475 -.00000108  00000+0  00000+0 0  9998
2 43491   2.5164  81.4655 0002768 159.9384  95.2489  1.00271865 27446
BEIDOU-2 IGSO-7         
1 43539U 18057A   25334.45598689 -.00000023  00000+0  00000+0 0  9990
2 43539  55.1734 164.7799 0092417 235.1447 305.3801  1.00260493 27131
TELSTAR 19V             
1 43562U 18059A   25334.49299378 -.00000258  00000+0  00000+0 0  9995
2 43562   0.0289 184.6112 0002008   7.9701 351.5236  1.00269526 27159
TELKOM 4 (MERAH PUTIH)  
1 43587U 18064A   25334.59822426 -.00000322  00000+0  00000+0 0  9997
2 43587   0.0319  81.8160 0001536 187.1168 124.1658  1.00270698 26887
TELSTAR 18V             
1 43611U 18069A   25334.60411763 -.00000272  00000+0  00000+0 0  9994
2 43611   0.0163 286.8325 0002134 326.9151 171.4749  1.00269658 26635
AZERSPACE 2 (IS-38)     
1 43632U 18074A   25334.58574418  .00000158  00000+0  00000+0 0  9999
2 43632   0.0173 309.9735 0001493 292.5850  83.1433  1.00270498 26455
HORIZONS-3E             
1 43633U 18074B   25334.56919830 -.00000009  00000+0  00000+0 0  9995
2 43633   0.0264 209.3898 0000927  95.5780 138.6740  1.00268899 26341
AEHF-4 (USA 288)        
1 43651U 18079A   25334.49204045 -.00000255  00000+0  00000+0 0  9990
2 43651   1.4593 346.7091 0059201   1.9843 190.5468  1.00268388 26305
BEIDOU-3 G1             
1 43683U 18085A   25332.60697203 -.00000257  00000+0  00000+0 0  9997
2 43683   2.5692 103.4187 0001615  56.2445 266.5866  1.00265618 26043
GSAT-29                 
1 43698U 18089A   25334.58773752  .00000107  00000+0  00000+0 0  9993
2 43698   0.0454 121.8981 0003597 123.1774  91.2681  1.00271414 25806
ES'HAIL 2               
1 43700U 18090A   25334.51056469  .00000166  00000+0  00000+0 0  9996
2 43700   0.0196 308.4683 0001254 297.9392  32.8334  1.00271156 25684
GEO-KOMPSAT-2A          
1 43823U 18100A   25334.58378190  .00000000  00000+0  00000+0 0  9996
2 43823   0.0271  85.2638 0000585 117.3715 205.4841  1.00269613 25635
GSAT-11                 
1 43824U 18100B   25334.52009808 -.00000055  00000+0  00000+0 0  9999
2 43824   0.0547 257.9187 0002345 226.2937 206.6441  1.00271887 25489
GSAT-7A                 
1 43864U 18105A   25334.58921087  .00000049  00000+0  00000+0 0  9998
2 43864   0.0569 102.3000 0002594 144.8252  97.4929  1.00269093 25455
COSMOS 2533             
1 43867U 18107A   25332.09372082 -.00000019  00000+0  00000+0 0  9990
2 43867   0.0388 119.4674 0000734 172.4727 239.0688  1.00270747 25422
TJS-3                   
1 43874U 18110A   25334.73116630  .00000078  00000+0  00000+0 0  9994
2 43874   2.0308  82.9121 0001337 143.3176 165.8749  1.00273813 25421
ZHONGXING-2D            
1 43920U 19001A   25334.63447352 -.00000315  00000+0  00000+0 0  9998
2 43920   0.0246 258.5057 0001910 359.5349 170.1642  1.00272674 52088
HELLAS-SAT 4 & SGS-1    
1 44034U 19007A   25334.58453084  .00000174  00000+0  00000+0 0  9996
2 44034   0.0632 128.0727 0005061  48.1523 142.9240  1.00269539 25374
GSAT-31                 
1 44035U 19007B   25334.58635086  .00000147  00000+0  00000+0 0  9991
2 44035   0.0642 101.2551 0006135 157.4312  69.9935  1.00272449 24975
NUSANTARA SATU          
1 44048U 19009A   25334.59558692 -.00000213  00000+0  00000+0 0  9990
2 44048   0.0037 135.8518 0002841  41.0863 253.2203  1.00270954 24775
ZHONGXING-6C            
1 44067U 19012A   25334.60264428 -.00000314  00000+0  00000+0 0  9990
2 44067   0.0667  70.7394 0004176 345.8589   0.5153  1.00270191 24744
WGS 10 (USA 291)        
1 44071U 19014A   25332.90236392  .00000067  00000+0  00000+0 0  9991
2 44071   0.0033 343.4414 0001200 335.3307 134.4386  1.00271484 24613
TIANLIAN 2-01           
1 44076U 19017A   25334.52070475 -.00000085  00000+0  00000+0 0  9998
2 44076   0.0358  36.6762 0004547 211.4911  85.9673  1.00270280 24653
ARABSAT-6A              
1 44186U 19021A   25334.51151802  .00000175  00000+0  00000+0 0  9997
2 44186   0.0377 330.9513 0006281 291.5119  21.8587  1.00272736 24163
BEIDOU-3 IGSO-1         
1 44204U 19023A   25323.59378135 -.00000226  00000+0  00000+0 0  9994
2 44204  58.4003  39.8168 0026966 221.2202 126.9723  1.00252177  5102
BEIDOU-2 G8             
1 44231U 19027A   25334.60550429 -.00000225  00000+0  00000+0 0  9999
2 44231   1.6284  74.6869 0008108 255.5437 102.0683  1.00271235 24080
YAMAL 601               
1 44307U 19031A   25333.23101193  .00000140  00000+0  00000+0 0  9991
2 44307   0.0181 297.3046 0002420 307.4224 315.8357  1.00272544 23913
